OBJECT_NAME,OBJECT_ID,EPOCH,MEAN_MOTION,ECCENTRICITY,INCLINATION,RA_OF_ASC_NODE,ARG_OF_PERICENTER,MEAN_ANOMALY,EPHEMERIS_TYPE,CLASSIFICATION_TYPE,NORAD_CAT_ID,ELEMENT_SET_NO,REV_AT_EPOCH,BSTAR,MEAN_MOTION_DOT,MEAN_MOTION_DDOT
STARLINK-38087,2026-150E,2026-07-22T04:31:08.541984,15.75149253,.00023456,97.2853,41.9199,5.7335,354.3957,0,U,69743,999,442,.22647315E-2,.351331E-2,0
STARLINK-38078,2026-150F,2026-07-22T04:04:00.827328,15.80880624,.00018633,97.2854,41.9461,102.3637,257.7840,0,U,69744,999,442,.97270367E-3,.190876E-2,0
STARLINK-38047,2026-150G,2026-07-22T01:36:18.544320,15.75296396,.00007501,97.2845,41.7786,38.3418,321.7901,0,U,69745,999,440,.1385864E-2,.212791E-2,0
STARLINK-38046,2026-150H,2026-07-22T06:00:02.000160,15.75208519,.00015612,97.2855,42.0133,89.1190,322.8401,0,U,69746,999,443,-.61590699E-3,-.91099E-3,0
STARLINK-38067,2026-150J,2026-07-22T01:54:05.658624,15.75183942,.00016721,97.2839,41.7618,123.1415,237.0011,0,U,69747,999,440,.14365548E-2,.219689E-2,0
STARLINK-37988,2026-150K,2026-07-22T01:51:33.132384,15.75186277,.00010454,97.2838,41.7636,100.9791,259.1592,0,U,69748,999,440,.12885676E-2,.196524E-2,0
STARLINK-37987,2026-150L,2026-07-22T01:45:31.264128,15.75269519,.00029139,97.2835,41.7692,58.7347,301.4203,0,U,69749,999,440,.13486253E-2,.2067E-2,0
STARLINK-38037,2026-150M,2026-07-22T06:00:02.000160,15.75254930,.00012911,97.2854,42.0295,85.0153,6.9329,0,U,69750,999,443,-.13862261E-2,-.20264E-2,0
STARLINK-38049,2026-150N,2026-07-21T23:18:35.021088,15.80984829,.00011544,97.2847,41.7570,347.6138,12.5102,0,U,69751,999,439,.17979924E-2,.361711E-2,0
STARLINK-38029,2026-150P,2026-07-22T04:24:31.918464,15.75232353,.00019613,97.2834,41.9280,73.9859,286.1622,0,U,69752,999,442,.13460637E-2,.205941E-2,0
STARLINK-37965,2026-150Q,2026-07-22T01:31:14.019744,15.75192974,.00021242,97.2843,41.7838,69.8475,290.3018,0,U,69753,999,440,.13498601E-2,.206179E-2,0
STARLINK-38048,2026-150R,2026-07-22T06:45:32.374944,15.80896035,.00011965,97.2844,42.1001,65.8551,294.2842,0,U,69754,999,444,.56900955E-3,.110646E-2,0
STARLINK-38006,2026-150S,2026-07-22T04:20:58.147584,15.75181714,.0001344,97.2864,41.9297,148.3689,211.7658,0,U,69755,999,442,.12694092E-2,.193493E-2,0
STARLINK-38036,2026-150T,2026-07-22T02:39:50.569344,15.75311990,.00040941,97.2864,41.8735,81.0197,279.1531,0,U,69756,999,441,.22471856E-2,.351106E-2,0
STARLINK-38058,2026-150U,2026-07-22T02:25:05.998368,15.75179999,.00010719,97.2853,41.8874,94.7354,265.4034,0,U,69757,999,441,.12841055E-2,.195772E-2,0
STARLINK-38066,2026-150V,2026-07-22T06:00:02.000160,15.75235474,.00013939,97.2849,42.0545,88.9187,61.0303,0,U,69758,999,443,-.12462922E-2,-.182472E-2,0
STARLINK-38035,2026-150W,2026-07-22T06:00:02.000160,15.77435367,.00019794,97.2848,42.0786,82.9006,118.8613,0,U,69759,999,443,-.12740106E-1,-.1838215E-1,0
STARLINK-38056,2026-150X,2026-07-22T06:33:54.406368,15.80887627,.00017845,97.2843,42.1125,78.8542,281.2926,0,U,69760,999,444,.15318492E-2,.304761E-2,0
STARLINK-38069,2026-150Y,2026-07-22T02:15:57.593376,15.75382890,.00011595,97.2862,41.8976,48.8325,311.3040,0,U,69761,999,441,.13859349E-2,.21362E-2,0
STARLINK-38019,2026-150Z,2026-07-22T05:51:26.276832,15.75240173,.00013122,97.2846,41.9975,77.7460,282.3952,0,U,69762,999,443,.11648708E-2,.177665E-2,0
KUIPER-00258,2026-151A,2026-07-22T05:36:52.632000,15.34570903,.00127237,51.8688,146.6467,190.4549,169.6174,0,U,69763,999,309,-.24557149E-2,-.83214E-3,0
KUIPER-00526,2026-151B,2026-07-22T06:00:02.000160,15.34166957,.00051675,51.8768,146.2949,154.0309,74.5747,0,U,69764,999,322,-.41215554E-2,-.136337E-2,0
KUIPER-00558,2026-151C,2026-07-22T06:00:02.000160,15.27449932,.00069377,51.8806,146.5624,176.3895,278.0471,0,U,69765,999,370,.19020677E-2,.51865E-3,0
KUIPER-00569,2026-151D,2026-07-22T06:29:21.221664,15.37585688,.00049357,51.8783,146.1612,160.7772,199.3402,0,U,69766,999,310,.42577794E-3,.15595E-3,0
KUIPER-00589,2026-151E,2026-07-22T06:00:02.000160,15.34627397,.00046044,51.8757,146.2975,159.7544,62.1170,0,U,69767,999,373,-.67991147E-1,-.2090068E-1,0
KUIPER-00598,2026-151F,2026-07-22T05:38:38.580864,15.34273332,.00080675,51.8652,146.6501,189.7635,170.3194,0,U,69768,999,309,-.10589039E-3,-.3951E-4,0
KUIPER-00604,2026-151G,2026-07-22T06:15:15.829632,15.38370405,.00026818,51.8795,146.0960,128.9557,231.1670,0,U,69769,999,310,.4814228E-3,.18152E-3,0
KUIPER-00609,2026-151H,2026-07-22T06:07:36.371712,15.38763325,.00012485,51.8800,146.0611,71.5469,288.5654,0,U,69770,999,310,.4680734E-3,.17867E-3,0
KUIPER-00611,2026-151J,2026-07-22T06:11:17.929824,15.38588583,.00013291,51.8800,146.0733,113.9303,246.1824,0,U,69771,999,310,.67750933E-3,.25918E-3,0
KUIPER-00612,2026-151K,2026-07-22T06:20:50.077536,15.38064556,.00036187,51.8787,146.1225,136.9293,223.1978,0,U,69772,999,310,.45404449E-3,.16923E-3,0
