STARLINK-38087          
1 69743U 26150E   26203.18829331  .00351331  00000+0  22647-2 0  9999
2 69743  97.2853  41.9199 0002345   5.7335 354.3957 15.75149253  4423
STARLINK-38078          
1 69744U 26150F   26203.16945402  .00190876  00000+0  97270-3 0  9996
2 69744  97.2854  41.9461 0001863 102.3637 257.7840 15.80880624  4427
STARLINK-38047          
1 69745U 26150G   26203.06688130  .00212791  00000+0  13859-2 0  9999
2 69745  97.2845  41.7786 0000750  38.3418 321.7901 15.75296396  4404
STARLINK-38046          
1 69746U 26150H   26203.25002315 -.00091099  00000+0 -61591-3 0  9991
2 69746  97.2855  42.0133 0001561  89.1190 322.8401 15.75208519  4438
STARLINK-38067          
1 69747U 26150J   26203.07923216  .00219689  00000+0  14366-2 0  9996
2 69747  97.2839  41.7618 0001672 123.1415 237.0011 15.75183942  4400
STARLINK-37988          
1 69748U 26150K   26203.07746681  .00196524  00000+0  12886-2 0  9993
2 69748  97.2838  41.7636 0001045 100.9791 259.1592 15.75186277  4407
STARLINK-37987          
1 69749U 26150L   26203.07327852  .00206700  00000+0  13486-2 0  9994
2 69749  97.2835  41.7692 0002913  58.7347 301.4203 15.75269519  4400
STARLINK-38037          
1 69750U 26150M   26203.25002315 -.00202640  00000+0 -13862-2 0  9999
2 69750  97.2854  42.0295 0001291  85.0153   6.9329 15.75254930  4432
STARLINK-38049          
1 69751U 26150N   26202.97123867  .00361711  00000+0  17980-2 0  9992
2 69751  97.2847  41.7570 0001154 347.6138  12.5102 15.80984829  4395
STARLINK-38029          
1 69752U 26150P   26203.18370276  .00205941  00000+0  13461-2 0  9997
2 69752  97.2834  41.9280 0001961  73.9859 286.1622 15.75232353  4429
STARLINK-37965          
1 69753U 26150Q   26203.06335671  .00206179  00000+0  13499-2 0  9990
2 69753  97.2843  41.7838 0002124  69.8475 290.3018 15.75192974  4405
STARLINK-38048          
1 69754U 26150R   26203.28162471  .00110646  00000+0  56901-3 0  9990
2 69754  97.2844  42.1001 0001196  65.8551 294.2842 15.80896035  4440
STARLINK-38006          
1 69755U 26150S   26203.18122856  .00193493  00000+0  12694-2 0  9994
2 69755  97.2864  41.9297 0001344 148.3689 211.7658 15.75181714  4423
STARLINK-38036          
1 69756U 26150T   26203.11100196  .00351106  00000+0  22472-2 0  9993
2 69756  97.2864  41.8735 0004094  81.0197 279.1531 15.75311990  4410
STARLINK-38058          
1 69757U 26150U   26203.10076387  .00195772  00000+0  12841-2 0  9991
2 69757  97.2853  41.8874 0001071  94.7354 265.4034 15.75179999  4418
STARLINK-38066          
1 69758U 26150V   26203.25002315 -.00182472  00000+0 -12463-2 0  9993
2 69758  97.2849  42.0545 0001393  88.9187  61.0303 15.75235474  4430
STARLINK-38035          
1 69759U 26150W   26203.25002315 -.01838215  00000+0 -12740-1 0  9995
2 69759  97.2848  42.0786 0001979  82.9006 118.8613 15.77435367  4431
STARLINK-38056          
1 69760U 26150X   26203.27354637  .00304761  00000+0  15318-2 0  9992
2 69760  97.2843  42.1125 0001784  78.8542 281.2926 15.80887627  4446
STARLINK-38069          
1 69761U 26150Y   26203.09441659  .00213620  00000+0  13859-2 0  9995
2 69761  97.2862  41.8976 0001159  48.8325 311.3040 15.75382890  4415
STARLINK-38019          
1 69762U 26150Z   26203.24405413  .00177665  00000+0  11649-2 0  9994
2 69762  97.2846  41.9975 0001312  77.7460 282.3952 15.75240173  4438
KUIPER-00258            
1 69763U 26151A   26203.23394250 -.00083214  00000+0 -24557-2 0  9991
2 69763  51.8688 146.6467 0012723 190.4549 169.6174 15.34570903  3093
KUIPER-00526            
1 69764U 26151B   26203.25002315 -.00136337  00000+0 -41216-2 0  9998
2 69764  51.8768 146.2949 0005167 154.0309  74.5747 15.34166957  3223
KUIPER-00558            
1 69765U 26151C   26203.25002315  .00051865  00000+0  19021-2 0  9998
2 69765  51.8806 146.5624 0006937 176.3895 278.0471 15.27449932  3700
KUIPER-00569            
1 69766U 26151D   26203.27038451  .00015595  00000+0  42578-3 0  9995
2 69766  51.8783 146.1612 0004935 160.7772 199.3402 15.37585688  3108
KUIPER-00589            
1 69767U 26151E   26203.25002315 -.02090068  00000+0 -67991-1 0  9990
2 69767  51.8757 146.2975 0004604 159.7544  62.1170 15.34627397  3730
KUIPER-00598            
1 69768U 26151F   26203.23516876 -.00003951  00000+0 -10589-3 0  9997
2 69768  51.8652 146.6501 0008067 189.7635 170.3194 15.34273332  3098
KUIPER-00604            
1 69769U 26151G   26203.26059988  .00018152  00000+0  48142-3 0  9990
2 69769  51.8795 146.0960 0002681 128.9557 231.1670 15.38370405  3104
KUIPER-00609            
1 69770U 26151H   26203.25528208  .00017867  00000+0  46807-3 0  9995
2 69770  51.8800 146.0611 0001248  71.5469 288.5654 15.38763325  3104
KUIPER-00611            
1 69771U 26151J   26203.25784641  .00025918  00000+0  67751-3 0  9998
2 69771  51.8800 146.0733 0001329 113.9303 246.1824 15.38588583  3108
KUIPER-00612            
1 69772U 26151K   26203.26446849  .00016923  00000+0  45404-3 0  9992
2 69772  51.8787 146.1225 0003618 136.9293 223.1978 15.38064556  3100
